STARLINK-32653          
1 62199U 24229H   25267.30294161  .00064094  00000+0  23192-2 0  9995
2 62199  43.0025 123.5018 0001226 301.5141  58.5591 15.27570394 45194
STARLINK-32647          
1 62200U 24229J   25266.97632975  .00049312  00000+0  17873-2 0  9994
2 62200  42.9977 132.3125 0001971 254.5882 105.4752 15.27620143 45069
STARLINK-32667          
1 62201U 24229K   25268.64041100  .00050949  00000+0  18498-2 0  9997
2 62201  43.0002 122.4513 0001588 272.6271  87.4398 15.27551846 45326
STARLINK-32655          
1 62202U 24229L   25268.94950908  .00057022  00000+0  20629-2 0  9994
2 62202  42.9977 121.3202 0001214 355.1258   4.9582 15.27624864 45361
STARLINK-32665          
1 62203U 24229M   25268.93150889  .00043152  00000+0  15670-2 0  9993
2 62203  43.0013 121.1849 0002254 256.4788 103.5812 15.27609451 45363
STARLINK-32664          
1 62204U 24229N   25267.30711751  .00026973  00000+0  98739-3 0  9995
2 62204  42.9983 130.4932 0001792 287.5744  72.4912 15.27536603 45113
STARLINK-32660          
1 62205U 24229P   25268.77569836  .00041002  00000+0  14891-2 0  9999
2 62205  42.9962 107.8649 0000961 229.5664 130.5104 15.27627243 45501
STARLINK-32448          
1 62206U 24229Q   25267.00959712  .00045332  00000+0  16446-2 0  9999
2 62206  43.0014 131.7085 0001705 291.7865  68.2805 15.27623162 45076
STARLINK-32430          
1 62207U 24229R   25268.94354986  .00063668  00000+0  23006-2 0  9998
2 62207  42.9989 117.8248 0001782 278.7188  81.3462 15.27617391 45409
STARLINK-32675          
1 62208U 24229S   25268.86227073  .00028081  00000+0  10255-2 0  9998
2 62208  43.0016 121.5300 0001739 280.1250  79.9405 15.27597389 45351
STARLINK-32671          
1 62209U 24229T   25267.98283985  .00043487  00000+0  15802-2 0  9995
2 62209  43.0009 126.9654 0000682 247.4607 112.6172 15.27587109 45213
STARLINK-32670          
1 62210U 24229U   25268.65840633  .00034521  00000+0  12578-2 0  9997
2 62210  43.0015 122.5799 0001727 271.6487  88.4167 15.27587812 45327
STARLINK-32642          
1 62211U 24229V   25268.78275420  .00055581  00000+0  20121-2 0  9990
2 62211  43.0026 121.7947 0001625 267.4970  92.5696 15.27613266 45341
STARLINK-32668          
1 62212U 24229W   25268.94741621  .00041325  00000+0  15005-2 0  9996
2 62212  43.0013 117.8526 0001654 266.8896  93.1766 15.27631278 45404
STARLINK-32669          
1 62213U 24229X   25268.95335526  .00054971  00000+0  19899-2 0  9997
2 62213  42.9983 121.3452 0001475 274.6043  85.4640 15.27619911 45369
STARLINK-32666          
1 62214U 24229Y   25267.97896597  .00045919  00000+0  16655-2 0  9998
2 62214  42.9985 126.9359 0000699 266.7372  93.3399 15.27626374 45217
STARLINK-32662          
1 62215U 24229Z   25268.94564130  .00060731  00000+0  21965-2 0  9991
2 62215  42.9992 121.2891 0002074 270.1516  89.9098 15.27606588 45361
STARLINK-11394 [DTC]    
1 62218U 24231A   25268.10039578  .00211048  00000+0  16983-2 0  9991
2 62218  53.1570 197.5768 0001515  58.7638 301.3528 15.69775977 47404
STARLINK-11490 [DTC]    
1 62219U 24231B   25268.86933213  .00289845  00000+0  23065-2 0  9993
2 62219  53.1570 193.8420 0001746  45.7742 314.3419 15.69795618 47527
STARLINK-11466 [DTC]    
1 62220U 24231C   25268.94280906  .00567970  00000+0  43174-2 0  9999
2 62220  53.1568 193.5926 0001277 163.7016 196.4043 15.70055316 47537
STARLINK-11468 [DTC]    
1 62221U 24231D   25268.95261828  .00248700  00000+0  19894-2 0  9992
2 62221  53.1563 193.6569 0001261 128.8318 231.2813 15.69798282 47534
STARLINK-11488 [DTC]    
1 62222U 24231E   25268.93790312  .00548287  00000+0  41806-2 0  9997
2 62222  53.1569 193.5595 0001548 169.1327 190.9725 15.70041120 47532
STARLINK-11483 [DTC]    
1 62223U 24231F   25268.90356502  .00212869  00000+0  17123-2 0  9993
2 62223  53.1566 193.3318 0001221  91.4020 268.7137 15.69778994 47531
STARLINK-11492 [DTC]    
1 62224U 24231G   25268.50203245  .00391621  00000+0  30680-2 0  9992
2 62224  53.1566 195.8320 0001616  65.1378 294.9808 15.69860689 47465
STARLINK-11471 [DTC]    
1 62225U 24231H   25268.52645662  .00232255  00000+0  18637-2 0  9993
2 62225  53.1577 195.2597 0000845  60.5807 299.5295 15.69774527 47474
STARLINK-11475 [DTC]    
1 62226U 24231J   25268.91337595  .00185191  00000+0  14959-2 0  9999
2 62226  53.1570 193.3935 0001146  96.0032 264.1116 15.69768810 47537
STARLINK-11469 [DTC]    
1 62227U 24231K   25268.15915333  .00145053  00000+0  11782-2 0  9992
2 62227  53.1572 197.2252 0001774 137.3281 222.7875 15.69773323 47411
STARLINK-11476 [DTC]    
1 62228U 24231L   25268.89866378  .00170175  00000+0  13784-2 0  9995
2 62228  53.1564 193.2975 0001793  67.8585 292.2623 15.69752788 47545
STARLINK-11485 [DTC]    
1 62229U 24231M   25268.91828146  .00227848  00000+0  18293-2 0  9990
2 62229  53.1569 193.4249 0001278  97.8907 262.2256 15.69776967 47539
STARLINK-11481 [DTC]    
1 62230U 24231N   25268.95752357  .00238614  00000+0  19117-2 0  9995
2 62230  53.1564 193.6840 0001288 125.1925 234.9214 15.69793152 47536
STARLINK-32650          
1 62231U 24231P   25268.29841882  .00037408  00000+0  12684-2 0  9995
2 62231  53.1565 268.0405 0001467  91.3644 268.7524 15.30210366 46440
STARLINK-32636          
1 62232U 24231Q   25268.97676489  .00057783  00000+0  19439-2 0  9993
2 62232  53.1590 264.4570 0001353  87.1812 272.9344 15.30266433 46551
STARLINK-32643          
1 62233U 24231R   25268.94318699  .00080390  00000+0  19963-2 0  9999
2 62233  53.1583 253.5923 0001512 101.3869 258.7306 15.39655175 46692
STARLINK-32652          
1 62234U 24231S   25268.28153115  .00028275  00000+0  96282-3 0  9991
2 62234  53.1580 267.9351 0001634  84.3227 275.7960 15.30211447 46435
STARLINK-32631          
1 62235U 24231T   25268.91670139  .00083328  00000+0  22051-2 0  9994
2 62235  53.1601 253.8704 0001172  92.5357  42.8838 15.37688353  5802
STARLINK-32641          
1 62236U 24231U   25268.27049147  .00083448  00000+0  20728-2 0  9995
2 62236  53.1579 256.5018 0001417  91.0846 269.0321 15.39629100 46592
STARLINK-32632          
1 62262U 24231V   25268.29103118  .00044463  00000+0  15037-2 0  9996
2 62262  53.1575 267.9916 0001514  91.5047 268.6127 15.30215102 46443
STARLINK-11496 [DTC]    
1 62267U 24237A   25268.46990183  .00294609  00000+0  22127-2 0  9999
2 62267  42.9993 332.8462 0000959 245.1837 114.8931 15.70908239 47060
STARLINK-11501 [DTC]    
1 62268U 24237B   25267.48429916  .00285413  00000+0  21472-2 0  9997
2 62268  42.9998 338.3391 0000940 248.8342 111.2425 15.70895571 46869
STARLINK-11491 [DTC]    
1 62269U 24237C   25267.47898933  .00392724  00000+0  29005-2 0  9990
2 62269  43.0008 338.2967 0002095 246.2067 113.8581 15.71014713 46910
STARLINK-11479 [DTC]    
1 62270U 24237D   25268.44866510  .00217155  00000+0  16475-2 0  9997
2 62270  43.0001 332.6763 0001217 286.8850  73.1885 15.70905409 47064
STARLINK-11489 [DTC]    
1 62271U 24237E   25268.48583083  .00324780  00000+0  24304-2 0  9996
2 62271  42.9996 332.9740 0000655 181.6829 178.4037 15.70903286 47066
STARLINK-11494 [DTC]    
1 62272U 24237F   25268.65534500  .00299458  00000+0  22515-2 0  9991
2 62272  42.9996 331.6524 0001264 297.5667  62.5072 15.70867609 47045
STARLINK-11333 [DTC]    
1 62273U 24237G   25268.53879286  .00169217  00000+0  12925-2 0  9995
2 62273  43.0007 332.5045 0001886 286.8909  73.1751 15.70896264 47073
STARLINK-11504 [DTC]    
1 62274U 24237H   25268.65003640  .00193185  00000+0  14715-2 0  9992
2 62274  43.0000 331.6088 0001310 288.3876  71.6849 15.70884955 47048
STARLINK-11495 [DTC]    
1 62275U 24237J   25268.23681042  .00283823  00000+0  21229-2 0  9992
2 62275  42.9985 334.5473 0004345 295.3179  64.7239 15.71034125 46978
STARLINK-11498 [DTC]    
1 62276U 24237K   25268.18902395  .00376149  00000+0  27808-2 0  9997
2 62276  42.9994 334.1631 0002203 243.9317 116.1324 15.71040378 47026
STARLINK-11484 [DTC]    
1 62277U 24237L   25268.91670139  .00001220  00000+0  12998-4 0  9998
2 62277  43.0005 329.9257 0001746 277.6707 182.2905 15.70843413  6042
STARLINK-11487 [DTC]    
1 62278U 24237M   25268.48052318  .00285331  00000+0  21469-2 0  9992
2 62278  42.9990 332.9271 0001025 279.7922  80.2830 15.70892834 47068
STARLINK-11499 [DTC]    
1 62279U 24237N   25268.55561603  .00270146  00000+0  20283-2 0  9994
2 62279  42.9995 332.6373 0001530 291.5369  68.5336 15.70990421 47007
STARLINK-33548          
1 62280U 24237P   25268.69482887  .00051297  00000+0  18599-2 0  9998
2 62280  43.0013  57.3005 0001645 276.3908  83.6756 15.27593342 46086
STARLINK-33544          
1 62281U 24237Q   25268.48708478  .00046608  00000+0  16927-2 0  9996
2 62281  42.9999  69.5722 0001346 276.6467  83.4231 15.27578199 45921
STARLINK-33560          
1 62282U 24237R   25268.46908908  .00038082  00000+0  13845-2 0  9998
2 62282  43.0001  69.4320 0001282 278.8315  81.2391 15.27620567 45836
STARLINK-33547          
1 62283U 24237S   25267.44862670  .00046493  00000+0  16868-2 0  9994
2 62283  43.0020  64.2870 0004050 288.3019  71.7392 15.27606936 45899
STARLINK-33563          
1 62284U 24237T   25268.47552345  .00044620  00000+0  16190-2 0  9992
2 62284  42.9984  69.4811 0000305 246.7107 113.3713 15.27624660 45922
STARLINK-33550          
1 62285U 24237U   25267.48443763  .00037000  00000+0  13465-2 0  9992
2 62285  43.0056  74.9417 0003268 277.8159  82.2322 15.27597179 45778
STARLINK-33564          
1 62286U 24237V   25268.47937123  .00034340  00000+0  12509-2 0  9993
2 62286  42.9979  69.5139 0000496 241.8095 118.2707 15.27599177 45926
STARLINK-33546          
1 62287U 24237W   25268.47166717  .00091313  00000+0  32789-2 0  9992
2 62287  42.9987  69.4513 0003750 293.8268  66.2191 15.27656293 45838
STARLINK-33565          
1 62288U 24237X   25268.72679641  .00056051  00000+0  20290-2 0  9990
2 62288  43.0042  56.6789 0002097 262.2864  97.7749 15.27610272 46095
